ORBCOMM FM24 [-]        
1 25478U 98053D   23262.72342220  .00001790  00000+0  67691-3 0  9996
2 25478  45.0102  37.9366 0001644 232.8301 127.2396 14.34638646306226
ORBCOMM FM26 [-]        
1 25480U 98053F   23262.40600415  .00001510  00000+0  58355-3 0  9994
2 25480  45.0090  30.9301 0005032 311.2685  48.7728 14.34219148306249
ORBCOMM FM27 [+]        
1 25481U 98053G   23262.39270627  .00001747  00000+0  66233-3 0  9997
2 25481  45.0078  37.9815 0001317 169.7651 190.3223 14.34595767306163
ORBCOMM FM28 [-]        
1 25482U 98053H   23262.66491086  .00001425  00000+0  54371-3 0  9995
2 25482  45.0085 336.0095 0003470 318.2894  41.7689 14.35103534306991
ORBCOMM FM30 [-]        
1 25980U 99065A   23262.73820627  .00001574  00000+0  60445-3 0  9991
2 25980  45.0315 214.6617 0005496  46.7751 313.3554 14.34343203243511
