<?xml version="1.0" encoding="UTF-8"?>
<ndm xmlns:xsi="http://www.w3.org/2001/XMLSchema-instance" xsi:noNamespaceSchemaLocation="https://sanaregistry.org/r/ndmxml_unqualified/ndmxml-2.0.0-master-2.0.xsd">
<omm id="CCSDS_OMM_VERS" version="2.0">
<header><CREATION_DATE/><ORIGINATOR/></header><body><segment><metadata><OBJECT_NAME>ORBCOMM FM24 [-]</OBJECT_NAME><OBJECT_ID>1998-053D</OBJECT_ID><CENTER_NAME>EARTH</CENTER_NAME><REF_FRAME>TEME</REF_FRAME><TIME_SYSTEM>UTC</TIME_SYSTEM><MEAN_ELEMENT_THEORY>SGP4</MEAN_ELEMENT_THEORY></metadata><data><meanElements><EPOCH>2023-09-19T17:21:43.678080</EPOCH><MEAN_MOTION>14.34638646</MEAN_MOTION><ECCENTRICITY>.0001644</ECCENTRICITY><INCLINATION>45.0102</INCLINATION><RA_OF_ASC_NODE>37.9366</RA_OF_ASC_NODE><ARG_OF_PERICENTER>232.8301</ARG_OF_PERICENTER><MEAN_ANOMALY>127.2396</MEAN_ANOMALY></meanElements><tleParameters><EPHEMERIS_TYPE>0</EPHEMERIS_TYPE><CLASSIFICATION_TYPE>U</CLASSIFICATION_TYPE><NORAD_CAT_ID>25478</NORAD_CAT_ID><ELEMENT_SET_NO>999</ELEMENT_SET_NO><REV_AT_EPOCH>30622</REV_AT_EPOCH><BSTAR>.67691E-3</BSTAR><MEAN_MOTION_DOT>.179E-4</MEAN_MOTION_DOT><MEAN_MOTION_DDOT>0</MEAN_MOTION_DDOT></tleParameters></data></segment></body></omm>
<omm id="CCSDS_OMM_VERS" version="2.0">
<header><CREATION_DATE/><ORIGINATOR/></header><body><segment><metadata><OBJECT_NAME>ORBCOMM FM26 [-]</OBJECT_NAME><OBJECT_ID>1998-053F</OBJECT_ID><CENTER_NAME>EARTH</CENTER_NAME><REF_FRAME>TEME</REF_FRAME><TIME_SYSTEM>UTC</TIME_SYSTEM><MEAN_ELEMENT_THEORY>SGP4</MEAN_ELEMENT_THEORY></metadata><data><meanElements><EPOCH>2023-09-19T09:44:38.758560</EPOCH><MEAN_MOTION>14.34219148</MEAN_MOTION><ECCENTRICITY>.0005032</ECCENTRICITY><INCLINATION>45.0090</INCLINATION><RA_OF_ASC_NODE>30.9301</RA_OF_ASC_NODE><ARG_OF_PERICENTER>311.2685</ARG_OF_PERICENTER><MEAN_ANOMALY>48.7728</MEAN_ANOMALY></meanElements><tleParameters><EPHEMERIS_TYPE>0</EPHEMERIS_TYPE><CLASSIFICATION_TYPE>U</CLASSIFICATION_TYPE><NORAD_CAT_ID>25480</NORAD_CAT_ID><ELEMENT_SET_NO>999</ELEMENT_SET_NO><REV_AT_EPOCH>30624</REV_AT_EPOCH><BSTAR>.58355E-3</BSTAR><MEAN_MOTION_DOT>.151E-4</MEAN_MOTION_DOT><MEAN_MOTION_DDOT>0</MEAN_MOTION_DDOT></tleParameters></data></segment></body></omm>
<omm id="CCSDS_OMM_VERS" version="2.0">
<header><CREATION_DATE/><ORIGINATOR/></header><body><segment><metadata><OBJECT_NAME>ORBCOMM FM27 [+]</OBJECT_NAME><OBJECT_ID>1998-053G</OBJECT_ID><CENTER_NAME>EARTH</CENTER_NAME><REF_FRAME>TEME</REF_FRAME><TIME_SYSTEM>UTC</TIME_SYSTEM><MEAN_ELEMENT_THEORY>SGP4</MEAN_ELEMENT_THEORY></metadata><data><meanElements><EPOCH>2023-09-19T09:25:29.821728</EPOCH><MEAN_MOTION>14.34595767</MEAN_MOTION><ECCENTRICITY>.0001317</ECCENTRICITY><INCLINATION>45.0078</INCLINATION><RA_OF_ASC_NODE>37.9815</RA_OF_ASC_NODE><ARG_OF_PERICENTER>169.7651</ARG_OF_PERICENTER><MEAN_ANOMALY>190.3223</MEAN_ANOMALY></meanElements><tleParameters><EPHEMERIS_TYPE>0</EPHEMERIS_TYPE><CLASSIFICATION_TYPE>U</CLASSIFICATION_TYPE><NORAD_CAT_ID>25481</NORAD_CAT_ID><ELEMENT_SET_NO>999</ELEMENT_SET_NO><REV_AT_EPOCH>30616</REV_AT_EPOCH><BSTAR>.66233E-3</BSTAR><MEAN_MOTION_DOT>.1747E-4</MEAN_MOTION_DOT><MEAN_MOTION_DDOT>0</MEAN_MOTION_DDOT></tleParameters></data></segment></body></omm>
<omm id="CCSDS_OMM_VERS" version="2.0">
<header><CREATION_DATE/><ORIGINATOR/></header><body><segment><metadata><OBJECT_NAME>ORBCOMM FM28 [-]</OBJECT_NAME><OBJECT_ID>1998-053H</OBJECT_ID><CENTER_NAME>EARTH</CENTER_NAME><REF_FRAME>TEME</REF_FRAME><TIME_SYSTEM>UTC</TIME_SYSTEM><MEAN_ELEMENT_THEORY>SGP4</MEAN_ELEMENT_THEORY></metadata><data><meanElements><EPOCH>2023-09-19T15:57:28.298304</EPOCH><MEAN_MOTION>14.35103534</MEAN_MOTION><ECCENTRICITY>.000347</ECCENTRICITY><INCLINATION>45.0085</INCLINATION><RA_OF_ASC_NODE>336.0095</RA_OF_ASC_NODE><ARG_OF_PERICENTER>318.2894</ARG_OF_PERICENTER><MEAN_ANOMALY>41.7689</MEAN_ANOMALY></meanElements><tleParameters><EPHEMERIS_TYPE>0</EPHEMERIS_TYPE><CLASSIFICATION_TYPE>U</CLASSIFICATION_TYPE><NORAD_CAT_ID>25482</NORAD_CAT_ID><ELEMENT_SET_NO>999</ELEMENT_SET_NO><REV_AT_EPOCH>30699</REV_AT_EPOCH><BSTAR>.54371E-3</BSTAR><MEAN_MOTION_DOT>.1425E-4</MEAN_MOTION_DOT><MEAN_MOTION_DDOT>0</MEAN_MOTION_DDOT></tleParameters></data></segment></body></omm>
<omm id="CCSDS_OMM_VERS" version="2.0">
<header><CREATION_DATE/><ORIGINATOR/></header><body><segment><metadata><OBJECT_NAME>ORBCOMM FM30 [-]</OBJECT_NAME><OBJECT_ID>1999-065A</OBJECT_ID><CENTER_NAME>EARTH</CENTER_NAME><REF_FRAME>TEME</REF_FRAME><TIME_SYSTEM>UTC</TIME_SYSTEM><MEAN_ELEMENT_THEORY>SGP4</MEAN_ELEMENT_THEORY></metadata><data><meanElements><EPOCH>2023-09-19T17:43:01.021728</EPOCH><MEAN_MOTION>14.34343203</MEAN_MOTION><ECCENTRICITY>.0005496</ECCENTRICITY><INCLINATION>45.0315</INCLINATION><RA_OF_ASC_NODE>214.6617</RA_OF_ASC_NODE><ARG_OF_PERICENTER>46.7751</ARG_OF_PERICENTER><MEAN_ANOMALY>313.3554</MEAN_ANOMALY></meanElements><tleParameters><EPHEMERIS_TYPE>0</EPHEMERIS_TYPE><CLASSIFICATION_TYPE>U</CLASSIFICATION_TYPE><NORAD_CAT_ID>25980</NORAD_CAT_ID><ELEMENT_SET_NO>999</ELEMENT_SET_NO><REV_AT_EPOCH>24351</REV_AT_EPOCH><BSTAR>.60445E-3</BSTAR><MEAN_MOTION_DOT>.1574E-4</MEAN_MOTION_DOT><MEAN_MOTION_DDOT>0</MEAN_MOTION_DDOT></tleParameters></data></segment></body></omm>

</ndm>
